CUTE-1 (CO-55)          
1 27844U 03031E   23210.02169519  .00000398  00000+0  19679-3 0  9997
2 27844  98.6780 216.6657 0009977  12.0749 348.0667 14.22827151 41713
CUBESAT XI-IV (CO-57)   
1 27848U 03031J   23210.25831595  .00000358  00000+0  18078-3 0  9994
2 27848  98.6816 217.2985 0010172  25.9829 334.1858 14.22332085 41534
CUBESAT XI-V            
1 28895U 05043F   23209.84998308  .00001607  00000+0  30299-3 0  9998
2 28895  98.1587 341.6059 0015094 303.3024  56.6734 14.65812684947145
CUTE-1.7+APD II (CO-65) 
1 32785U 08021C   23210.77074742  .00004100  00000+0  40320-3 0  9998
2 32785  97.7075 175.8282 0010962 329.3329  30.7249 14.92621069827242
AAUSAT-II               
1 32788U 08021F   23209.92322213  .00008493  00000+0  60640-3 0  9991
2 32788  97.5616 188.4398 0007066 192.5540 167.5511 15.04737749829484
DELFI-C3 (DO-64)        
1 32789U 08021G   23210.80764604  .00072306  00000+0  16616-2 0  9992
2 32789  97.2994 232.1649 0001686   0.3821 359.7428 15.42416320834048
SEEDS II (CO-66)        
1 32791U 08021J   23210.38352693  .00005827  00000+0  50790-3 0  9995
2 32791  97.6565 180.7525 0010057 269.2007  90.8062 14.97217818828055
SWISSCUBE               
1 35932U 09051B   23210.19672091  .00001111  00000+0  25335-3 0  9994
2 35932  98.5160  81.5403 0006341 232.1952 127.8672 14.57834182735373
BEESAT-1                
1 35933U 09051C   23211.05376756  .00000993  00000+0  22795-3 0  9994
2 35933  98.5086  83.7017 0004489 242.3253 117.7490 14.57730891735619
ITUPSAT1                
1 35935U 09051E   23210.22911602  .00000873  00000+0  20594-3 0  9991
2 35935  98.5187  82.7882 0006706 252.8967 107.1496 14.56771022735118
TISAT 1                 
1 36799U 10035E   23210.20266443  .00005587  00000+0  49370-3 0  9998
2 36799  98.1327  81.4807 0010657 185.4418 174.6688 14.96730482708711
M-CUBED & EXP-1 PRIME   
1 37855U 11061F   23210.18144177  .00023384  00000+0  68707-3 0  9998
2 37855 101.7063 195.6192 0112194 270.9120  87.9251 15.29092019643441
AEROCUBE 4.5A           
1 38767U 12048K   23210.38282106  .00007884  00000+0  53374-3 0  9995
2 38767  64.6635 267.5309 0117042 140.9010 220.0640 15.01674129211728
AEROCUBE 4.5B           
1 38768U 12048L   23211.09381425  .00011947  00000+0  67462-3 0  9997
2 38768  64.6615 207.8795 0095932 133.5975 227.3158 15.09575525212446
STRAND-1                
1 39090U 13009E   23210.44822914  .00000390  00000+0  14984-3 0  9996
2 39090  98.3881  42.6474 0009799 133.2315 226.9691 14.35641875545800
BRITE-AUSTRIA           
1 39091U 13009F   23210.10190882  .00000247  00000+0  10057-3 0  9990
2 39091  98.3911  41.5436 0011156 141.3285 218.8701 14.35515273545777
SOMP                    
1 39134U 13015E   23211.06687863  .00272849  00000+0  16231-2 0  9999
2 39134  64.8412 135.6140 0018062 257.1966 102.7171 15.76728951570091
BEESAT-3                
1 39135U 13015F   23210.36702076  .00051787  00000+0  10133-2 0  9997
2 39135  64.8545 195.0577 0017492 251.3436 108.5806 15.46953045568881
BEESAT-2                
1 39136U 13015G   23210.44064451  .00041813  00000+0  92377-3 0  9995
2 39136  64.8646 207.1601 0027704 272.3953  87.4014 15.43215231568679
NEE-01 PEGASO           
1 39151U 13018B   23210.02418686  .00002218  00000+0  27904-3 0  9992
2 39151  98.0123 320.2785 0016292  20.7512 339.4359 14.83014578553895
ESTCUBE 1               
1 39161U 13021C   23211.11084065  .00002033  00000+0  31305-3 0  9993
2 39161  97.8701 282.1578 0009229 183.2557 176.8593 14.74490691549495
POPACS 1                
1 39268U 13055D   23209.86951842  .00039569  00000+0  86006-3 0  9995
2 39268  80.9916 156.6811 0498865  37.6335 325.8689 14.68963463514021
POPACS 2                
1 39269U 13055E   23211.04468639  .00010397  00000+0  26645-3 0  9997
2 39269  81.0055 226.6175 0601220 218.9682 136.6715 14.44080050509982
POPACS 3                
1 39270U 13055F   23210.87862801  .00007434  00000+0  21565-3 0  9992
2 39270  81.0114 268.2109 0658097 336.2685  20.9363 14.29429256507362
ZACUBE-1 (TSHEPISOSAT)  
1 39417U 13066B   23210.13947079  .00002536  00000+0  29356-3 0  9991
2 39417  97.6870 170.3492 0055525 147.9500 212.5112 14.85262158523429
WNISAT-1                
1 39423U 13066H   23211.08529054  .00000722  00000+0  14990-3 0  9995
2 39423  97.6990  66.3733 0171263 302.9771  55.5063 14.54276260513673
TRITON-1                
1 39427U 13066M   23211.02147053  .00003965  00000+0  59356-3 0  9995
2 39427  97.8338 135.2719 0108827  41.0851 319.8487 14.71244328518840
DELFI-N3XT              
1 39428U 13066N   23210.77323236  .00006261  00000+0  88986-3 0  9999
2 39428  97.8317 134.1037 0111507  53.0898 308.0465 14.73011261518589
GOMX-1                  
1 39430U 13066Q   23210.96489373  .00001597  00000+0  28314-3 0  9994
2 39430  97.7748  99.6101 0144483 197.4882 162.1317 14.62002466515780
CUBEBUG-2 (LO-74)       
1 39440U 13066AA  23210.43602086  .00002689  00000+0  34890-3 0  9994
2 39440  97.7731 157.8213 0073248 249.3784 109.9562 14.79733762521609
NEE-02 KRYSAOR          
1 39441U 13066AB  23210.40212698  .00002031  00000+0  27762-3 0  9999
2 39441  97.7842 154.5433 0076144 267.0903  92.1592 14.77673142521248
FUNCUBE-1 (AO-73)       
1 39444U 13066AE  23210.38996621  .00004513  00000+0  49605-3 0  9991
2 39444  97.6732 173.1748 0054148 132.2893 228.2932 14.87033791522506
UWE-3                   
1 39446U 13066AG  23210.82501646  .00002800  00000+0  34412-3 0  9998
2 39446  97.7364 164.3343 0064541 198.1878 161.7027 14.82352974521333
BRITE-CA1 (TORONTO)     
1 40020U 14033L   23210.96067277  .00001105  00000+0  19012-3 0  9991
2 40020  97.8315 355.7245 0086127  44.4701 316.3377 14.68105379487537
DUCHIFAT-1              
1 40021U 14033M   23210.69599468  .00007266  00000+0  61040-3 0  9996
2 40021  98.0580 176.0418 0011876 130.3025 229.9236 14.98576668495554
NANOSATC-BR1            
1 40024U 14033Q   23210.45325082  .00005188  00000+0  46210-3 0  9995
2 40024  98.0296 166.6567 0011817 134.8812 225.3370 14.96441357495259
QB50P1                  
1 40025U 14033R   23210.39232533  .00004617  00000+0  43470-3 0  9998
2 40025  97.9974 157.9205 0012082 147.6073 212.5891 14.94309659494957
QB50P2                  
1 40032U 14033Y   23211.07551394  .00004169  00000+0  40146-3 0  9990
2 40032  97.9681 152.1937 0011655 142.7028 217.5003 14.93465176494899
PERSEUS-M2              
1 40037U 14033AD  23211.02753189  .00001789  00000+0  19790-3 0  9992
2 40037  97.9069 136.6094 0013907 173.3626 186.7777 14.88574085494227
PERSEUS-M1              
1 40039U 14033AF  23210.78957125  .00001830  00000+0  20394-3 0  9991
2 40039  97.8924 133.2740 0013715 173.3913 186.7487 14.88238013494063
POLYITAN-1              
1 40042U 14033AJ  23210.43648609  .00005310  00000+0  48689-3 0  9995
2 40042  98.0094 159.9710 0013952 139.5548 220.6712 14.95266440494861
TIGRISAT                
1 40043U 14033AK  23211.07967315  .00002037  00000+0  29099-3 0  9992
2 40043  97.6676  23.9495 0056070 274.5229  84.9578 14.76676749490040
AEROCUBE 6A             
1 40045U 14033AM  23211.05806641  .00004213  00000+0  56280-3 0  9996
2 40045  97.6581  33.7518 0052956 258.3034 101.2233 14.79070767490205
AEROCUBE 6B             
1 40046U 14033AN  23211.06940864  .00004209  00000+0  55265-3 0  9991
2 40046  97.6527  32.2469 0051613 255.0571 104.4924 14.79841992490370
UKUBE-1                 
1 40074U 14037F   23210.73589930  .00004394  00000+0  47705-3 0  9997
2 40074  98.3413 117.4605 0005331  61.1106 299.0644 14.88685603490585
BRITE-PL2 (HEWELIUSZ)   
1 40119U 14049B   23210.24148822  .00001789  00000+0  20668-3 0  9991
2 40119  97.8827 307.0189 0016274 354.4909   5.6125 14.86769461484502
FIREBIRD 4              
1 40378U 15003C   23210.88062944  .02099812  51851-2  16264-2 0  9994
2 40378  99.0661 184.3201 0009217 112.0428 248.1833 16.16129250471432
GRIFEX                  
1 40379U 15003D   23211.05165654  .00041861  00000+0  81917-3 0  9991
2 40379  99.0773 158.2565 0078537 122.5346 238.3515 15.43929979469997
CP10 (EXOCUBE)          
1 40380U 15003E   23210.34636189  .00020907  00000+0  54663-3 0  9996
2 40380  99.0819 146.4999 0094496 160.4345 200.0559 15.34288623469192
EXACTVIEW 9             
1 40936U 15052G   23211.00807487  .00002723  00000+0  27551-3 0  9994
2 40936   6.0022 141.7755 0010053 180.3885 179.6235 14.78722741423641
AEROCUBE 5C             
1 40965U 15058B   23210.42862192  .00002160  00000+0  24694-3 0  9991
2 40965  64.7724 272.7514 0163682  56.2786 305.3799 14.79582758209085
AEROCUBE 7              
1 40966U 15058C   23210.13966372  .00002313  00000+0  25849-3 0  9998
2 40966  64.7709 269.6195 0161028  56.0524 305.5771 14.80561869209094
ATHENOXAT 1             
1 41168U 15077C   23210.34654543  .00769860  00000+0  26827-2 0  9994
2 41168  14.9832 244.8421 0004078 141.2635 218.7988 15.86160310422951
GALASSIA                
1 41170U 15077E   23210.79066815  .00055754  00000+0  11519-2 0  9997
2 41170  14.9866 267.0400 0005190 296.7991  63.1803 15.43911694422806
VELOX-II                
1 41171U 15077F   23210.82368739  .00021922  00000+0  71922-3 0  9997
2 41171  14.9922  14.9545 0006394  73.1020 287.0004 15.29153568421795
HORYU-4                 
1 41340U 16012D   23210.54671960  .00007049  00000+0  43457-3 0  9993
2 41340  31.0039 270.7496 0010969 306.7984  53.1647 15.08508718409122
E-ST@R-II               
1 41459U 16025D   23211.01422084  .00026922  00000+0  72954-3 0  9997
2 41459  98.1824  56.7394 0099896 309.9957  49.2544 15.32642127399455
AAUSAT 4                
1 41460U 16025E   23211.08855705  .00237291  00000+0  18115-2 0  9997
2 41460  98.1501  71.6624 0041198 250.3741 109.3071 15.70351050400475
BEESAT-4                
1 41619U 16040W   23210.13762265  .00146662  00000+0  12083-2 0  9992
2 41619  97.1518 260.3295 0004662 125.4822 234.6877 15.69908092383430
